[
  {
    "OBJECT_NAME": "STARLINK-35042",
    "OBJECT_ID": "25195Z",
    "EPOCH": "2025-11-11T08:00:03.000384",
    "MEAN_MOTION": 15.30150845,
    "ECCENTRICITY": 9.96e-05,
    "INCLINATION": 53.1597,
    "RA_OF_ASC_NODE": 88.1676,
    "ARG_OF_PERICENTER": 67.8645,
    "MEAN_ANOMALY": 142.9129,
    "EPHEMERIS_TYPE": 0,
    "CLASSIFICATION_TYPE": "U",
    "NORAD_CAT_ID": 65481,
    "ELEMENT_SET_NO": 999,
    "REV_AT_EPOCH": 586,
    "BSTAR": 0.0023191,
    "MEAN_MOTION_DOT": 0.00068858,
    "MEAN_MOTION_DDOT": 0.0,
    "TLE_LINE1": "1 65481U 25195Z   25315.33336806  .00068858  00000+0  23191-2 0  9996",
    "TLE_LINE2": "2 65481  53.1597  88.1676 0000996  67.8645 142.9129 15.30150845  5861",
    "COMMENT": "Grouped by shell and plane from TLE"
  },
  {
    "OBJECT_NAME": "STARLINK-35038",
    "OBJECT_ID": "25195AA",
    "EPOCH": "2025-11-11T02:09:10.573344",
    "MEAN_MOTION": 15.30225004,
    "ECCENTRICITY": 8.57e-05,
    "INCLINATION": 53.1602,
    "RA_OF_ASC_NODE": 89.1711,
    "ARG_OF_PERICENTER": 93.4188,
    "MEAN_ANOMALY": 266.6911,
    "EPHEMERIS_TYPE": 0,
    "CLASSIFICATION_TYPE": "U",
    "NORAD_CAT_ID": 65482,
    "ELEMENT_SET_NO": 999,
    "REV_AT_EPOCH": 1181,
    "BSTAR": 0.0012749,
    "MEAN_MOTION_DOT": 0.00037619,
    "MEAN_MOTION_DDOT": 0.0,
    "TLE_LINE1": "1 65482U 25195AA  25315.08970571  .00037619  00000+0  12749-2 0  9990",
    "TLE_LINE2": "2 65482  53.1602  89.1711 0000857  93.4188 266.6911 15.30225004 11818",
    "COMMENT": "Grouped by shell and plane from TLE"
  },
  {
    "OBJECT_NAME": "STARLINK-35037",
    "OBJECT_ID": "25195AB",
    "EPOCH": "2025-11-11T01:41:48.576768",
    "MEAN_MOTION": 15.3022676,
    "ECCENTRICITY": 0.0001261,
    "INCLINATION": 53.1579,
    "RA_OF_ASC_NODE": 89.0508,
    "ARG_OF_PERICENTER": 1.4441,
    "MEAN_ANOMALY": 358.6563,
    "EPHEMERIS_TYPE": 0,
    "CLASSIFICATION_TYPE": "U",
    "NORAD_CAT_ID": 65483,
    "ELEMENT_SET_NO": 999,
    "REV_AT_EPOCH": 1181,
    "BSTAR": 0.00075347,
    "MEAN_MOTION_DOT": 0.00022041,
    "MEAN_MOTION_DDOT": 0.0,
    "TLE_LINE1": "1 65483U 25195AB  25315.07070112  .00022041  00000+0  75347-3 0  9999",
    "TLE_LINE2": "2 65483  53.1579  89.0508 0001261   1.4441 358.6563 15.30226760 11811",
    "COMMENT": "Grouped by shell and plane from TLE"
  },
  {
    "OBJECT_NAME": "STARLINK-35089",
    "OBJECT_ID": "25195AC",
    "EPOCH": "2025-11-11T02:33:28.767744",
    "MEAN_MOTION": 15.30251705,
    "ECCENTRICITY": 4.58e-05,
    "INCLINATION": 53.1627,
    "RA_OF_ASC_NODE": 89.2779,
    "ARG_OF_PERICENTER": 348.1001,
    "MEAN_ANOMALY": 11.9989,
    "EPHEMERIS_TYPE": 0,
    "CLASSIFICATION_TYPE": "U",
    "NORAD_CAT_ID": 65484,
    "ELEMENT_SET_NO": 999,
    "REV_AT_EPOCH": 1181,
    "BSTAR": 0.0012453,
    "MEAN_MOTION_DOT": 0.00036764,
    "MEAN_MOTION_DDOT": 0.0,
    "TLE_LINE1": "1 65484U 25195AC  25315.10658296  .00036764  00000+0  12453-2 0  9994",
    "TLE_LINE2": "2 65484  53.1627  89.2779 0000458 348.1001  11.9989 15.30251705 11816",
    "COMMENT": "Grouped by shell and plane from TLE"
  }
]